ONEWEB-0080             
1 45426U 20020C   25183.75410871 -.00000182  00000+0 -54940-3 0  9994
2 45426  87.8837  90.7124 0002237  83.4590 276.6792 13.11415236256908
ONEWEB-0090             
1 45427U 20020D   25183.77359665 -.00000468  00000+0 -13564-2 0  9993
2 45427  87.8844  90.7094 0001962  76.6942 283.4405 13.11417528256871
ONEWEB-0061             
1 45428U 20020E   25184.18717852  .00000596  00000+0  16451-2 0  9994
2 45428  87.8837  90.6090 0001947  79.4397 280.6950 13.11416935256883
ONEWEB-0081             
1 45429U 20020F   25184.16864026 -.00000363  00000+0 -10596-2 0  9997
2 45429  87.8841  90.6331 0001810  84.3529 275.7805 13.11418064256999
ONEWEB-0069             
1 45430U 20020G   25183.77613397 -.00000414  00000+0 -12048-2 0  9999
2 45430  87.8846  90.7019 0001817  78.9681 281.1651 13.11416472256873
ONEWEB-0031             
1 45431U 20020H   25184.43485294  .00000252  00000+0  67407-3 0  9995
2 45431  87.8843  90.6012 0002117  74.8396 285.2966 13.11415383256947
ONEWEB-0027             
1 45432U 20020J   25184.45594745  .00000035  00000+0  55896-4 0  9999
2 45432  87.9054  75.2667 0001836  68.6022 291.5305 13.17648777260439
ONEWEB-0064             
1 45433U 20020K   25184.20426507  .00000339  00000+0  91954-3 0  9994
2 45433  87.8840  90.6399 0002031  73.7515 286.3836 13.11415606256957
